STARLINK-2404
1 18093C 21027B   21326.17446403 -.00000199  00000-0 -13310-4 0  3266
2 18093  53.0555   2.9587 0001513  58.4814  38.0587 15.06405183    15
